[
    {
        "Altitude(m)": 604983.0530649535,
        "Argument of Periapsis(deg)": 0.0,
        "Eccentricity": 0.0,
        "Inclination(deg)": 60.0,
        "Latitude(deg)": -0.09272784455780754,
        "Longitude(deg)": -49.916083524559625,
        "Mean Anomaly(deg)": -180.0,
        "RAAN(deg)": 229.99999999999997,
        "Satellite Name": "Test1 1023",
        "Satellite Number": 1023,
        "Semi-Major Axis(m)": 6980739.136638005,
        "Time(s)": 0
    },
    {
        "Altitude(m)": 605055.333081582,
        "Argument of Periapsis(deg)": 0.00010418945913296404,
        "Eccentricity": 0.0,
        "Inclination(deg)": 60.0,
        "Latitude(deg)": -0.6331374996133264,
        "Longitude(deg)": -49.64795817488932,
        "Mean Anomaly(deg)": -179.37989385453818,
        "RAAN(deg)": 229.99957995086024,
        "Satellite Name": "Test1 1023",
        "Satellite Number": 1023,
        "Semi-Major Axis(m)": 6980739.136638005,
        "Time(s)": 10
    }
]